NORAD_CAT_ID,OBJECT_NAME,OBJECT_TYPE,EPOCH,MEAN_MOTION,ECCENTRICITY,INCLINATION,RA_OF_ASC_NODE,ARG_OF_PERICENTER,MEAN_ANOMALY,BSTAR,MEAN_MOTION_DOT,MEAN_MOTION_DDOT,TLE_LINE0,TLE_LINE1,TLE_LINE2,SEMIMAJOR_AXIS,PERIOD,APOGEE,PERIGEE,DECAYED
54160.0,STARLINK-5233,PAYLOAD,2023-10-29 03:25:46,15.08857427,0.000128,53.217,241.2116,93.5117,266.6022,3.2748e-05,2.34e-06,0.0,0 STARLINK-5233,1 54160U 22141D   23302.14289992  .00000234  00000-0  32748-4 0  9997,2 54160  53.2170 241.2116 0001280  93.5117 266.6022 15.08857427 56136,6917.827,95.436,540.578,538.807,0.0
54160.0,STARLINK-5233,PAYLOAD,2023-10-29 05:01:08,15.08868817,0.0001182,53.2174,240.9136,89.6615,270.4513,0.0001262,1.723e-05,0.0,0 STARLINK-5233,1 54160U 22141D   23302.20912934  .00001723  00000-0  12620-3 0  9993,2 54160  53.2174 240.9136 0001182  89.6615 270.4513 15.08868817 56142,6917.792,95.436,540.475,538.84,0.0
54160.0,STARLINK-5233,PAYLOAD,2023-10-29 12:58:05,15.08849269,0.0001115,53.2175,239.4266,77.4614,282.6503,-2.8854e-05,-7.47e-06,0.0,0 STARLINK-5233,1 54160U 22141D   23302.54034397 -.00000747  00000-0 -28854-4 0  9992,2 54160  53.2175 239.4266 0001115  77.4614 282.6503 15.08849269 56199,6917.852,95.437,540.488,538.946,0.0
54160.0,STARLINK-5233,PAYLOAD,2023-10-29 19:19:39,15.08829585,0.000221,53.2179,238.2387,74.7891,285.3346,0.00019026,2.74e-05,0.0,0 STARLINK-5233,1 54160U 22141D   23302.80531420  .00002740  00000-0  19026-3 0  9993,2 54160  53.2179 238.2387 0002210  74.7891 285.3346 15.08829585 56237,6917.912,95.438,541.306,538.248,0.0
54160.0,STARLINK-5233,PAYLOAD,2023-10-30 19:10:25,15.08842874,0.0001241,53.2181,233.7736,89.3455,270.7679,0.00012589,1.716e-05,0.0,0 STARLINK-5233,1 54160U 22141D   23303.79890818  .00001716  00000-0  12589-3 0  9990,2 54160  53.2181 233.7736 0001241  89.3455 270.7679 15.08842874 56388,6917.872,95.437,540.595,538.878,0.0
54160.0,STARLINK-5233,PAYLOAD,2023-10-31 03:07:19,15.08867514,0.0001442,53.2182,232.2918,88.7861,271.3297,0.00017356,2.477e-05,0.0,0 STARLINK-5233,1 54160U 22141D   23304.13008891  .00002477  00000-0  17356-3 0  9993,2 54160  53.2182 232.2918 0001442  88.7861 271.3297 15.08867514 56439,6917.796,95.436,540.659,538.664,0.0
54160.0,STARLINK-5233,PAYLOAD,2023-10-31 12:39:40,15.08846339,0.0001849,53.2183,230.5076,78.4329,281.6871,-6.4221e-05,-1.31e-05,0.0,0 STARLINK-5233,1 54160U 22141D   23304.52754805 -.00001310  00000-0 -64221-4 0  9990,2 54160  53.2183 230.5076 0001849  78.4329 281.6871 15.08846339 56492,6917.861,95.437,541.005,538.447,0.0
54160.0,STARLINK-5233,PAYLOAD,2023-10-31 19:01:14,15.08815178,0.0001828,53.2193,229.3186,74.5577,285.5617,-0.00010022,-1.882e-05,0.0,0 STARLINK-5233,1 54160U 22141D   23304.79252975 -.00001882  00000-0 -10022-3 0  9993,2 54160  53.2193 229.3186 0001828  74.5577 285.5617 15.08815178 56533,6917.956,95.439,541.086,538.557,0.0
54160.0,STARLINK-5233,PAYLOAD,2023-11-01 01:22:46,15.08823854,0.0001575,53.2183,228.1277,83.2706,276.8465,-5.9801e-05,-1.239e-05,0.0,0 STARLINK-5233,1 54160U 22141D   23305.05748478 -.00001239  00000-0 -59801-4 0  9996,2 54160  53.2183 228.1277 0001575  83.2706 276.8465 15.08823854 56578,6917.93,95.439,540.884,538.705,0.0
54160.0,STARLINK-5233,PAYLOAD,2023-11-01 12:30:28,15.08833525,0.0001514,53.2192,226.0448,91.787,268.3295,-5.7042e-05,-1.196e-05,0.0,0 STARLINK-5233,1 54160U 22141D   23305.52115988 -.00001196  00000-0 -57042-4 0  9999,2 54160  53.2192 226.0448 0001514  91.7870 268.3295 15.08833525 56645,6917.9,95.438,540.813,538.718,0.0
54160.0,STARLINK-5233,PAYLOAD,2023-11-01 14:05:51,15.08834057,0.0001395,53.2181,225.7497,83.5808,276.5343,-5.6252e-05,-1.183e-05,0.0,0 STARLINK-5233,1 54160U 22141D   23305.58739969 -.00001183  00000-0 -56252-4 0  9994,2 54160  53.2181 225.7497 0001395  83.5808 276.5343 15.08834057 56657,6917.899,95.438,540.729,538.799,0.0
54160.0,STARLINK-5233,PAYLOAD,2023-11-01 18:52:00,15.08845655,0.0001451,53.2173,224.8572,83.4262,276.6895,-7.9097e-05,-1.547e-05,0.0,0 STARLINK-5233,1 54160U 22141D   23305.78611352 -.00001547  00000-0 -79097-4 0  9997,2 54160  53.2173 224.8572 0001451  83.4262 276.6895 15.08845655 56680,6917.863,95.437,540.732,538.724,0.0
54160.0,STARLINK-5233,PAYLOAD,2023-11-01 22:02:46,15.08848014,0.0001439,53.2175,224.2635,80.1706,279.9449,-5.9802e-05,-1.24e-05,0.0,0 STARLINK-5233,1 54160U 22141D   23305.91859102 -.00001240  00000-0 -59802-4 0  9991,2 54160  53.2175 224.2635 0001439  80.1706 279.9449 15.08848014 56705,6917.856,95.437,540.716,538.725,0.0
54160.0,STARLINK-5233,PAYLOAD,2023-11-02 04:24:17,15.08861209,0.0001447,53.2183,223.0703,97.5557,262.5599,-5.536e-05,-1.169e-05,0.0,0 STARLINK-5233,1 54160U 22141D   23306.18354004 -.00001169  00000-0 -55360-4 0  9997,2 54160  53.2183 223.0703 0001447  97.5557 262.5599 15.08861209 56741,6917.816,95.436,540.682,538.68,0.0
54160.0,STARLINK-5233,PAYLOAD,2023-11-02 21:53:33,15.08824603,0.0001354,53.2174,219.8021,84.0356,276.079,0.0001436,1.997e-05,0.0,0 STARLINK-5233,1 54160U 22141D   23306.91219905  .00001997  00000-0  14360-3 0  9999,2 54160  53.2174 219.8021 0001354  84.0356 276.0790 15.08824603 56854,6917.927,95.439,540.729,538.856,0.0
54160.0,STARLINK-5233,PAYLOAD,2023-11-03 04:15:05,15.08839025,0.000149,53.2184,218.6094,92.9338,267.1824,0.00014714,2.054e-05,0.0,0 STARLINK-5233,1 54160U 22141D   23307.17715184  .00002054  00000-0  14714-3 0  9996,2 54160  53.2184 218.6094 0001490  92.9338 267.1824 15.08839025 56898,6917.883,95.438,540.779,538.718,0.0
54160.0,STARLINK-5233,PAYLOAD,2023-11-03 18:33:35,15.0883537,0.0001797,53.2167,215.9348,97.3635,262.7561,4.8912e-06,-2.1e-06,0.0,0 STARLINK-5233,1 54160U 22141D   23307.77332334 -.00000210  00000-0  48912-5 0  9996,2 54160  53.2167 215.9348 0001797  97.3635 262.7561 15.08835370 56988,6917.895,95.438,541.003,538.516,0.0
54160.0,STARLINK-5233,PAYLOAD,2023-11-03 21:44:21,15.08833662,0.0001535,53.2171,215.3401,96.7406,263.3761,-1.3015e-05,-4.95e-06,0.0,0 STARLINK-5233,1 54160U 22141D   23307.90580349 -.00000495  00000-0 -13015-4 0  9993,2 54160  53.2171 215.3401 0001535  96.7406 263.3761 15.08833662 57001,6917.9,95.438,540.827,538.703,0.0
54160.0,STARLINK-5233,PAYLOAD,2023-11-04 10:27:26,15.08843199,0.0001352,53.2172,212.9626,85.4767,274.6379,-4.4452e-05,-9.95e-06,0.0,0 STARLINK-5233,1 54160U 22141D   23308.43571824 -.00000995  00000-0 -44452-4 0  9994,2 54160  53.2172 212.9626 0001352  85.4767 274.6379 15.08843199 57080,6917.871,95.437,540.671,538.8,0.0
54160.0,STARLINK-5233,PAYLOAD,2023-11-04 21:35:08,15.08840486,0.0001246,53.2175,210.8817,92.2759,267.8375,2.7241e-05,1.46e-06,0.0,0 STARLINK-5233,1 54160U 22141D   23308.89940127  .00000146  00000-0  27241-4 0  9993,2 54160  53.2175 210.8817 0001246  92.2759 267.8375 15.08840486 57155,6917.879,95.438,540.606,538.882,0.0
54160.0,STARLINK-5233,PAYLOAD,2023-11-05 02:21:16,15.08851555,0.0001275,53.2161,209.9909,108.2399,251.8732,0.00012707,1.736e-05,0.0,0 STARLINK-5233,1 54160U 22141D   23309.09811088  .00001736  00000-0  12707-3 0  9995,2 54160  53.2161 209.9909 0001275 108.2399 251.8732 15.08851555 57183,6917.845,95.437,540.592,538.828,0.0
54160.0,STARLINK-5233,PAYLOAD,2023-11-05 10:18:12,15.08855684,0.0001313,53.2179,208.5011,94.096,266.0182,0.00012614,1.721e-05,0.0,0 STARLINK-5233,1 54160U 22141D   23309.42930574  .00001721  00000-0  12614-3 0  9995,2 54160  53.2179 208.5011 0001313  94.0960 266.0182 15.08855684 57230,6917.832,95.437,540.606,538.789,0.0
54160.0,STARLINK-5233,PAYLOAD,2023-11-05 21:25:54,15.08851795,9.42e-05,53.2174,206.4218,96.1436,263.9663,0.00016688,2.37e-05,0.0,0 STARLINK-5233,1 54160U 22141D   23309.89298684  .00002370  00000-0  16688-3 0  9991,2 54160  53.2174 206.4218 0000942  96.1436 263.9663 15.08851795 57306,6917.844,95.437,540.361,539.058,0.0
54160.0,STARLINK-5233,PAYLOAD,2023-11-06 03:47:24,15.08884089,0.000143,53.2162,205.2275,98.881,261.2344,0.00059739,9.244e-05,0.0,0 STARLINK-5233,1 54160U 22141D   23310.15792656  .00009244  00000-0  59739-3 0  9991,2 54160  53.2162 205.2275 0001430  98.8810 261.2344 15.08884089 57344,6917.746,95.435,540.6,538.621,0.0
54160.0,STARLINK-5233,PAYLOAD,2023-11-06 21:16:42,15.0880076,0.0001638,53.217,201.9604,53.5996,306.5147,-0.00062392,-0.00010193,0.0,0 STARLINK-5233,1 54160U 22141D   23310.88660772 -.00010193  00000-0 -62392-3 0  9990,2 54160  53.2170 201.9604 0001638  53.5996 306.5147 15.08800760 57455,6918.0,95.44,540.999,538.732,0.0
54160.0,STARLINK-5233,PAYLOAD,2023-11-07 02:02:52,15.08801303,0.0001343,53.2164,201.0673,77.8597,282.2545,-0.0007444,-0.00012103,0.0,0 STARLINK-5233,1 54160U 22141D   23311.08532944 -.00012103  00000-0 -74440-3 0  9992,2 54160  53.2164 201.0673 0001343  77.8597 282.2545 15.08801303 57483,6917.999,95.44,540.793,538.935,0.0
54160.0,STARLINK-5233,PAYLOAD,2023-11-07 09:59:48,15.08808691,0.0001298,53.2155,199.5804,83.349,276.765,-0.00055613,-9.12e-05,0.0,0 STARLINK-5233,1 54160U 22141D   23311.41653231 -.00009120  00000-0 -55613-3 0  9998,2 54160  53.2155 199.5804 0001298  83.3490 276.7650 15.08808691 57531,6917.976,95.44,540.739,538.943,0.0
54160.0,STARLINK-5233,PAYLOAD,2023-11-08 00:18:16,15.08833157,0.0001149,53.2167,196.9037,79.7681,280.3441,-0.00014214,-2.549e-05,0.0,0 STARLINK-5233,1 54160U 22141D   23312.01269093 -.00002549  00000-0 -14214-3 0  9994,2 54160  53.2167 196.9037 0001149  79.7681 280.3441 15.08833157 57623,6917.901,95.438,540.561,538.971,0.0
54160.0,STARLINK-5233,PAYLOAD,2023-11-08 22:33:41,15.08826342,0.0001043,53.217,192.7381,83.3654,276.7457,0.00071886,0.00011167,0.0,0 STARLINK-5233,1 54160U 22141D   23312.94006433  .00011167  00000-0  71886-3 0  9995,2 54160  53.2170 192.7381 0001043  83.3654 276.7457 15.08826342 57766,6917.922,95.438,540.509,539.066,0.0
54160.0,STARLINK-5233,PAYLOAD,2023-11-09 01:44:25,15.08839728,0.0001326,53.2173,192.1439,76.7824,283.3316,0.00065734,0.00010189,0.0,0 STARLINK-5233,1 54160U 22141D   23313.07252020  .00010189  00000-0  65734-3 0  9993,2 54160  53.2173 192.1439 0001326  76.7824 283.3316 15.08839728 57788,6917.881,95.438,540.664,538.829,0.0
